CCSDS_OMM_VERS = 2.0
CREATION_DATE  = 
ORIGINATOR     = 

OBJECT_NAME    = UNKNOWN
OBJECT_ID      = 
CENTER_NAME    = EARTH
REF_FRAME      = TEME
TIME_SYSTEM    = UTC
MEAN_ELEMENT_THEORY = SGP/SGP4

EPOCH          = 2025-11-17T15:02:42.574560
MEAN_MOTION    = 13.82378495
ECCENTRICITY   = .056532
INCLINATION    = 65.7706
RA_OF_ASC_NODE = 92.8165
ARG_OF_PERICENTER = 319.8120
MEAN_ANOMALY   = 36.2395

EPHEMERIS_TYPE = 0
CLASSIFICATION_TYPE = U
NORAD_CAT_ID   = 81052
ELEMENT_SET_NO = 999
REV_AT_EPOCH   = 59684
BSTAR          = .15451E-2
MEAN_MOTION_DOT = .5741E-4
MEAN_MOTION_DDOT = 0

CCSDS_OMM_VERS = 2.0
CREATION_DATE  = 
ORIGINATOR     = 

OBJECT_NAME    = UNKNOWN
OBJECT_ID      = 
CENTER_NAME    = EARTH
REF_FRAME      = TEME
TIME_SYSTEM    = UTC
MEAN_ELEMENT_THEORY = SGP/SGP4

EPOCH          = 2025-11-15T11:31:05.061216
MEAN_MOTION    = 13.60251046
ECCENTRICITY   = .0062761
INCLINATION    = 100.3800
RA_OF_ASC_NODE = 218.9484
ARG_OF_PERICENTER = 109.0723
MEAN_ANOMALY   = 251.7226

EPHEMERIS_TYPE = 0
CLASSIFICATION_TYPE = U
NORAD_CAT_ID   = 81069
ELEMENT_SET_NO = 999
REV_AT_EPOCH   = 51222
BSTAR          = .63981E-2
MEAN_MOTION_DOT = .4809E-4
MEAN_MOTION_DDOT = 0

CCSDS_OMM_VERS = 2.0
CREATION_DATE  = 
ORIGINATOR     = 

OBJECT_NAME    = UNKNOWN
OBJECT_ID      = 
CENTER_NAME    = EARTH
REF_FRAME      = TEME
TIME_SYSTEM    = UTC
MEAN_ELEMENT_THEORY = SGP/SGP4

EPOCH          = 2025-11-10T23:58:05.874240
MEAN_MOTION    = 11.22435745
ECCENTRICITY   = .0176652
INCLINATION    = 65.1162
RA_OF_ASC_NODE = 309.3966
ARG_OF_PERICENTER = 8.4282
MEAN_ANOMALY   = 19.9028

EPHEMERIS_TYPE = 0
CLASSIFICATION_TYPE = U
NORAD_CAT_ID   = 81078
ELEMENT_SET_NO = 999
REV_AT_EPOCH   = 49106
BSTAR          = -.16395E-2
MEAN_MOTION_DOT = -.96E-6
MEAN_MOTION_DDOT = 0

CCSDS_OMM_VERS = 2.0
CREATION_DATE  = 
ORIGINATOR     = 

OBJECT_NAME    = UNKNOWN
OBJECT_ID      = 
CENTER_NAME    = EARTH
REF_FRAME      = TEME
TIME_SYSTEM    = UTC
MEAN_ELEMENT_THEORY = SGP/SGP4

EPOCH          = 2025-11-17T10:02:53.571840
MEAN_MOTION    = 7.54557278
ECCENTRICITY   = .3864771
INCLINATION    = 62.8940
RA_OF_ASC_NODE = 43.0339
ARG_OF_PERICENTER = 356.2545
MEAN_ANOMALY   = 1.5632

EPHEMERIS_TYPE = 0
CLASSIFICATION_TYPE = U
NORAD_CAT_ID   = 81111
ELEMENT_SET_NO = 999
REV_AT_EPOCH   = 27003
BSTAR          = .35042E-2
MEAN_MOTION_DOT = .16314E-3
MEAN_MOTION_DDOT = 0

CCSDS_OMM_VERS = 2.0
CREATION_DATE  = 
ORIGINATOR     = 

OBJECT_NAME    = UNKNOWN
OBJECT_ID      = 
CENTER_NAME    = EARTH
REF_FRAME      = TEME
TIME_SYSTEM    = UTC
MEAN_ELEMENT_THEORY = SGP/SGP4

EPOCH          = 2025-11-17T13:25:23.331648
MEAN_MOTION    = 12.92966477
ECCENTRICITY   = .0027666
INCLINATION    = 90.2502
RA_OF_ASC_NODE = 3.4627
ARG_OF_PERICENTER = 96.3630
MEAN_ANOMALY   = 264.0640

EPHEMERIS_TYPE = 0
CLASSIFICATION_TYPE = U
NORAD_CAT_ID   = 81134
ELEMENT_SET_NO = 999
REV_AT_EPOCH   = 45935
BSTAR          = .12186E-2
MEAN_MOTION_DOT = .34E-5
MEAN_MOTION_DDOT = 0

CCSDS_OMM_VERS = 2.0
CREATION_DATE  = 
ORIGINATOR     = 

OBJECT_NAME    = UNKNOWN
OBJECT_ID      = 
CENTER_NAME    = EARTH
REF_FRAME      = TEME
TIME_SYSTEM    = UTC
MEAN_ELEMENT_THEORY = SGP/SGP4

EPOCH          = 2025-11-13T00:22:23.961504
MEAN_MOTION    = 13.75501567
ECCENTRICITY   = .006513
INCLINATION    = 100.4236
RA_OF_ASC_NODE = 156.3218
ARG_OF_PERICENTER = 358.3399
MEAN_ANOMALY   = 1.7521

EPHEMERIS_TYPE = 0
CLASSIFICATION_TYPE = U
NORAD_CAT_ID   = 81161
ELEMENT_SET_NO = 999
REV_AT_EPOCH   = 55204
BSTAR          = .30674E-2
MEAN_MOTION_DOT = .2948E-4
MEAN_MOTION_DDOT = 0

CCSDS_OMM_VERS = 2.0
CREATION_DATE  = 
ORIGINATOR     = 

OBJECT_NAME    = UNKNOWN
OBJECT_ID      = 
CENTER_NAME    = EARTH
REF_FRAME      = TEME
TIME_SYSTEM    = UTC
MEAN_ELEMENT_THEORY = SGP/SGP4

EPOCH          = 2025-11-16T11:48:17.042688
MEAN_MOTION    = 13.81760472
ECCENTRICITY   = .0019681
INCLINATION    = 82.9280
RA_OF_ASC_NODE = 25.8562
ARG_OF_PERICENTER = 289.2109
MEAN_ANOMALY   = 70.6921

EPHEMERIS_TYPE = 0
CLASSIFICATION_TYPE = U
NORAD_CAT_ID   = 81219
ELEMENT_SET_NO = 999
REV_AT_EPOCH   = 60389
BSTAR          = .67079E-3
MEAN_MOTION_DOT = .733E-5
MEAN_MOTION_DDOT = 0

CCSDS_OMM_VERS = 2.0
CREATION_DATE  = 
ORIGINATOR     = 

OBJECT_NAME    = UNKNOWN
OBJECT_ID      = 
CENTER_NAME    = EARTH
REF_FRAME      = TEME
TIME_SYSTEM    = UTC
MEAN_ELEMENT_THEORY = SGP/SGP4

EPOCH          = 2025-11-14T09:55:35.034816
MEAN_MOTION    = 14.40317874
ECCENTRICITY   = .006167
INCLINATION    = 70.5228
RA_OF_ASC_NODE = 340.2631
ARG_OF_PERICENTER = 42.5648
MEAN_ANOMALY   = 318.0240

EPHEMERIS_TYPE = 0
CLASSIFICATION_TYPE = U
NORAD_CAT_ID   = 81228
ELEMENT_SET_NO = 999
REV_AT_EPOCH   = 62201
BSTAR          = .20552E-2
MEAN_MOTION_DOT = .6619E-4
MEAN_MOTION_DDOT = 0

CCSDS_OMM_VERS = 2.0
CREATION_DATE  = 
ORIGINATOR     = 

OBJECT_NAME    = UNKNOWN
OBJECT_ID      = 
CENTER_NAME    = EARTH
REF_FRAME      = TEME
TIME_SYSTEM    = UTC
MEAN_ELEMENT_THEORY = SGP/SGP4

EPOCH          = 2025-11-17T14:42:13.923360
MEAN_MOTION    = 14.01263237
ECCENTRICITY   = .007477
INCLINATION    = 100.3897
RA_OF_ASC_NODE = 20.2654
ARG_OF_PERICENTER = 139.3939
MEAN_ANOMALY   = 221.2831

EPHEMERIS_TYPE = 0
CLASSIFICATION_TYPE = U
NORAD_CAT_ID   = 81254
ELEMENT_SET_NO = 999
REV_AT_EPOCH   = 60937
BSTAR          = .28436E-2
MEAN_MOTION_DOT = .4332E-4
MEAN_MOTION_DDOT = 0

CCSDS_OMM_VERS = 2.0
CREATION_DATE  = 
ORIGINATOR     = 

OBJECT_NAME    = UNKNOWN
OBJECT_ID      = 
CENTER_NAME    = EARTH
REF_FRAME      = TEME
TIME_SYSTEM    = UTC
MEAN_ELEMENT_THEORY = SGP/SGP4

EPOCH          = 2025-11-17T14:51:35.234784
MEAN_MOTION    = 14.19866143
ECCENTRICITY   = .0208651
INCLINATION    = 98.1341
RA_OF_ASC_NODE = 23.0619
ARG_OF_PERICENTER = 98.7746
MEAN_ANOMALY   = 263.7123

EPHEMERIS_TYPE = 0
CLASSIFICATION_TYPE = U
NORAD_CAT_ID   = 81279
ELEMENT_SET_NO = 999
REV_AT_EPOCH   = 45903
BSTAR          = .60916E-3
MEAN_MOTION_DOT = .1568E-4
MEAN_MOTION_DDOT = 0

CCSDS_OMM_VERS = 2.0
CREATION_DATE  = 
ORIGINATOR     = 

OBJECT_NAME    = UNKNOWN
OBJECT_ID      = 
CENTER_NAME    = EARTH
REF_FRAME      = TEME
TIME_SYSTEM    = UTC
MEAN_ELEMENT_THEORY = SGP/SGP4

EPOCH          = 2025-11-15T20:24:16.898976
MEAN_MOTION    = 13.76684775
ECCENTRICITY   = .0095939
INCLINATION    = 66.7602
RA_OF_ASC_NODE = 0.0962
ARG_OF_PERICENTER = 249.4768
MEAN_ANOMALY   = 285.9851

EPHEMERIS_TYPE = 0
CLASSIFICATION_TYPE = U
NORAD_CAT_ID   = 81301
ELEMENT_SET_NO = 999
REV_AT_EPOCH   = 60265
BSTAR          = .52695E-3
MEAN_MOTION_DOT = .461E-5
MEAN_MOTION_DDOT = 0

CCSDS_OMM_VERS = 2.0
CREATION_DATE  = 
ORIGINATOR     = 

OBJECT_NAME    = UNKNOWN
OBJECT_ID      = 
CENTER_NAME    = EARTH
REF_FRAME      = TEME
TIME_SYSTEM    = UTC
MEAN_ELEMENT_THEORY = SGP/SGP4

EPOCH          = 2025-11-16T10:23:10.081248
MEAN_MOTION    = 14.56474920
ECCENTRICITY   = .0131375
INCLINATION    = 98.7384
RA_OF_ASC_NODE = 16.4643
ARG_OF_PERICENTER = 204.7826
MEAN_ANOMALY   = 170.0796

EPHEMERIS_TYPE = 0
CLASSIFICATION_TYPE = U
NORAD_CAT_ID   = 81311
ELEMENT_SET_NO = 999
REV_AT_EPOCH   = 63576
BSTAR          = .32893E-3
MEAN_MOTION_DOT = .1586E-4
MEAN_MOTION_DDOT = 0

