UNKNOWN                 
1 81052U          25321.62688165  .00005741  00000+0  15451-2 0  9995
2 81052  65.7706  92.8165 0565320 319.8120  36.2395 13.82378495596845
UNKNOWN                 
1 81069U          25319.47991969  .00004809  00000+0  63981-2 0  9997
2 81069 100.3800 218.9484 0062761 109.0723 251.7226 13.60251046512223
UNKNOWN                 
1 81078U          25314.99867910 -.00000096  00000+0 -16395-2 0  9990
2 81078  65.1162 309.3966 0176652   8.4282  19.9028 11.22435745491067
UNKNOWN                 
1 81111U          25321.41867560  .00016314  00000+0  35042-2 0  9992
2 81111  62.8940  43.0339 3864771 356.2545   1.5632  7.54557278270030
UNKNOWN                 
1 81134U          25321.55929782  .00000340  00000+0  12186-2 0  9993
2 81134  90.2502   3.4627 0027666  96.3630 264.0640 12.92966477459354
UNKNOWN                 
1 81161U          25317.01555511  .00002948  00000+0  30674-2 0  9992
2 81161 100.4236 156.3218 0065130 358.3399   1.7521 13.75501567552048
UNKNOWN                 
1 81219U          25320.49186392  .00000733  00000+0  67079-3 0  9999
2 81219  82.9280  25.8562 0019681 289.2109  70.6921 13.81760472603896
UNKNOWN                 
1 81228U          25318.41359994  .00006619  00000+0  20552-2 0  9991
2 81228  70.5228 340.2631 0061670  42.5648 318.0240 14.40317874622013
UNKNOWN                 
1 81254U          25321.61266115  .00004332  00000+0  28436-2 0  9997
2 81254 100.3897  20.2654 0074770 139.3939 221.2831 14.01263237609374
UNKNOWN                 
1 81279U          25321.61915781  .00001568  00000+0  60916-3 0  9992
2 81279  98.1341  23.0619 0208651  98.7746 263.7123 14.19866143459037
UNKNOWN                 
1 81301U          25319.85019559  .00000461  00000+0  52695-3 0  9995
2 81301  66.7602   0.0962 0095939 249.4768 285.9851 13.76684775602655
UNKNOWN                 
1 81311U          25320.43275557  .00001586  00000+0  32893-3 0  9991
2 81311  98.7384  16.4643 0131375 204.7826 170.0796 14.56474920635767
